NORAD_CAT_ID,OBJECT_NAME,OBJECT_TYPE,EPOCH,MEAN_MOTION,ECCENTRICITY,INCLINATION,RA_OF_ASC_NODE,ARG_OF_PERICENTER,MEAN_ANOMALY,BSTAR,MEAN_MOTION_DOT,MEAN_MOTION_DDOT,TLE_LINE0,TLE_LINE1,TLE_LINE2,SEMIMAJOR_AXIS,PERIOD,APOGEE,PERIGEE,DECAYED
53613.0,STARLINK-4655,PAYLOAD,2024-01-22 07:14:04,15.08834029,0.0001356,53.2168,124.1007,104.6036,255.5106,-8.2396e-06,-4.19e-06,0.0,0 STARLINK-4655,1 53613U 22104AB  24022.30144495 -.00000419  00000-0 -82396-5 0  9996,2 53613  53.2168 124.1007 0001356 104.6036 255.5106 15.08834029 78273,6917.899,95.438,540.702,538.826,0.0
53613.0,STARLINK-4655,PAYLOAD,2024-01-22 12:00:13,15.08839562,0.0001452,53.2164,123.2102,97.386,262.7297,4.6789e-05,4.57e-06,0.0,0 STARLINK-4655,1 53613U 22104AB  24022.50016044  .00000457  00000-0  46789-4 0  9991,2 53613  53.2164 123.2102 0001452  97.3860 262.7297 15.08839562 77733,6917.882,95.438,540.751,538.742,0.0
53613.0,STARLINK-4655,PAYLOAD,2024-01-22 13:35:36,15.0884069,0.0001411,53.2163,122.9153,87.7367,272.3787,8.0533e-05,9.94e-06,0.0,0 STARLINK-4655,1 53613U 22104AB  24022.56639926  .00000994  00000-0  80533-4 0  9998,2 53613  53.2163 122.9153 0001411  87.7367 272.3787 15.08840690 78314,6917.878,95.438,540.719,538.767,0.0
53613.0,STARLINK-4655,PAYLOAD,2024-01-23 11:51:03,15.08815756,0.0001575,53.2167,118.7489,97.8019,262.3151,-0.00017841,-3.124e-05,0.0,0 STARLINK-4655,1 53613U 22104AB  24023.49379499 -.00003124  00000-0 -17841-3 0  9998,2 53613  53.2167 118.7489 0001575  97.8019 262.3151 15.08815756 77880,6917.954,95.439,540.909,538.73,0.0
53613.0,STARLINK-4655,PAYLOAD,2024-01-23 13:26:26,15.08818379,0.0001521,53.2172,118.4537,90.1462,269.9705,-0.00016527,-2.916e-05,0.0,0 STARLINK-4655,1 53613U 22104AB  24023.56003409 -.00002916  00000-0 -16527-3 0  9999,2 53613  53.2172 118.4537 0001521  90.1462 269.9705 15.08818379 78463,6917.946,95.439,540.864,538.759,0.0
53613.0,STARLINK-4655,PAYLOAD,2024-01-24 11:41:49,15.08845554,0.0001916,53.2165,114.291,62.4004,297.7183,8.4462e-05,1.057e-05,0.0,0 STARLINK-4655,1 53613U 22104AB  24024.48737294  .00001057  00000-0  84462-4 0  9994,2 53613  53.2165 114.2910 0001916  62.4004 297.7183 15.08845554 78033,6917.863,95.437,541.054,538.403,0.0
53613.0,STARLINK-4655,PAYLOAD,2024-01-24 13:17:10,15.08860039,0.0001468,53.2166,113.9936,81.4687,278.6472,0.00020388,2.96e-05,0.0,0 STARLINK-4655,1 53613U 22104AB  24024.55359931  .00002960  00000-0  20388-3 0  9990,2 53613  53.2166 113.9936 0001468  81.4687 278.6472 15.08860039 78616,6917.819,95.436,540.7,538.669,0.0
53613.0,STARLINK-4655,PAYLOAD,2024-01-25 11:32:36,15.08840171,0.0001728,53.2176,109.8315,70.3484,289.7694,0.00019516,2.819e-05,0.0,0 STARLINK-4655,1 53613U 22104AB  24025.48097779  .00002819  00000-0  19516-3 0  9996,2 53613  53.2176 109.8315 0001728  70.3484 289.7694 15.08840171 78189,6917.88,95.438,540.94,538.549,0.0
53613.0,STARLINK-4655,PAYLOAD,2024-01-25 13:07:59,15.08841088,0.0001713,53.2181,109.5358,80.2615,279.8571,0.00020433,2.965e-05,0.0,0 STARLINK-4655,1 53613U 22104AB  24025.54721613  .00002965  00000-0  20433-3 0  9996,2 53613  53.2181 109.5358 0001713  80.2615 279.8571 15.08841088 78765,6917.877,95.437,540.927,538.557,0.0
53613.0,STARLINK-4655,PAYLOAD,2024-01-26 12:58:45,15.08858807,0.000196,53.2181,105.071,69.3562,290.764,-7.853e-05,-1.539e-05,0.0,0 STARLINK-4655,1 53613U 22104AB  24026.54080835 -.00001539  00000-0 -78530-4 0  9991,2 53613  53.2181 105.0710 0001960  69.3562 290.7640 15.08858807 78914,6917.823,95.436,541.044,538.332,0.0
53613.0,STARLINK-4655,PAYLOAD,2024-01-27 11:14:10,15.08843646,0.0002204,53.2187,100.9067,65.5328,294.5894,-2.3207e-05,-6.58e-06,0.0,0 STARLINK-4655,1 53613U 22104AB  24027.46817170 -.00000658  00000-0 -23207-4 0  9995,2 53613  53.2187 100.9067 0002204  65.5328 294.5894 15.08843646 78489,6917.869,95.437,541.259,538.21,0.0
53613.0,STARLINK-4655,PAYLOAD,2024-01-28 11:04:57,15.08840753,0.000161,53.2174,96.4522,85.9867,274.1309,-8.5004e-05,-1.641e-05,0.0,0 STARLINK-4655,1 53613U 22104AB  24028.46177345 -.00001641  00000-0 -85004-4 0  9995,2 53613  53.2174  96.4522 0001610  85.9867 274.1309 15.08840753 79206,6917.878,95.438,540.857,538.629,0.0
53613.0,STARLINK-4655,PAYLOAD,2024-01-29 10:55:43,15.08844645,0.0001762,53.2181,91.9918,98.2414,261.8778,9.8595e-05,1.282e-05,0.0,0 STARLINK-4655,1 53613U 22104AB  24029.45536404  .00001282  00000-0  98595-4 0  9998,2 53613  53.2181  91.9918 0001762  98.2414 261.8778 15.08844645 78785,6917.866,95.437,540.95,538.512,0.0
53613.0,STARLINK-4655,PAYLOAD,2024-01-30 09:11:08,15.08833445,0.000176,53.2182,87.8292,108.0373,252.0811,1.3881e-05,-6.7e-07,0.0,0 STARLINK-4655,1 53613U 22104AB  24030.38273573 -.00000067  00000-0  13881-4 0  9993,2 53613  53.2182  87.8292 0001760 108.0373 252.0811 15.08833445 78929,6917.9,95.438,540.983,538.548,0.0
53613.0,STARLINK-4655,PAYLOAD,2024-01-31 12:12:41,15.08851884,0.0001956,53.2177,82.769,104.9124,255.2085,-0.00013335,-2.411e-05,0.0,0 STARLINK-4655,1 53613U 22104AB  24031.50881103 -.00002411  00000-0 -13335-3 0  9991,2 53613  53.2177  82.7690 0001956 104.9124 255.2085 15.08851884 79099,6917.844,95.437,541.062,538.356,0.0
53613.0,STARLINK-4655,PAYLOAD,2024-01-31 13:48:04,15.08856074,0.0002327,53.2181,82.4735,113.8452,246.2784,-0.00021248,-3.67e-05,0.0,0 STARLINK-4655,1 53613U 22104AB  24031.57505000 -.00003670  00000-0 -21248-3 0  9997,2 53613  53.2181  82.4735 0002327 113.8452 246.2784 15.08856074 79673,6917.831,95.437,541.306,538.086,0.0
53613.0,STARLINK-4655,PAYLOAD,2024-02-01 08:52:42,15.08832739,0.0001918,53.2183,78.9044,115.9875,244.1315,1.3188e-05,-7.8e-07,0.0,0 STARLINK-4655,1 53613U 22104AB  24032.36994040 -.00000078  00000-0  13188-4 0  9994,2 53613  53.2183  78.9044 0001918 115.9875 244.1315 15.08832739 79225,6917.903,95.438,541.094,538.441,0.0
53613.0,STARLINK-4655,PAYLOAD,2024-02-01 12:03:29,15.08837504,0.000177,53.2187,78.3088,103.5088,256.6101,1.5434e-05,-4.2e-07,0.0,0 STARLINK-4655,1 53613U 22104AB  24032.50241903 -.00000042  00000-0  15434-4 0  9990,2 53613  53.2187  78.3088 0001770 103.5088 256.6101 15.08837504 79817,6917.888,95.438,540.977,538.529,0.0
53613.0,STARLINK-4655,PAYLOAD,2024-02-02 10:18:52,15.08845792,0.0001598,53.218,74.1456,86.4273,273.6902,8.9454e-06,-1.46e-06,0.0,0 STARLINK-4655,1 53613U 22104AB  24033.42977565 -.00000146  00000-0  89454-5 0  9991,2 53613  53.2180  74.1456 0001598  86.4273 273.6902 15.08845792 79384,6917.863,95.437,540.833,538.622,0.0
53613.0,STARLINK-4655,PAYLOAD,2024-02-03 02:12:44,15.0883653,0.0001695,53.2179,71.1739,82.5226,277.5959,6.1899e-05,6.97e-06,0.0,0 STARLINK-4655,1 53613U 22104AB  24034.09218002  .00000697  00000-0  61899-4 0  9991,2 53613  53.2179  71.1739 0001695  82.5226 277.5959 15.08836530 79482,6917.891,95.438,540.929,538.583,0.0
53613.0,STARLINK-4655,PAYLOAD,2024-02-03 08:34:16,15.08842981,0.0001736,53.2179,69.9868,77.1859,282.9327,3.1357e-05,2.11e-06,0.0,0 STARLINK-4655,1 53613U 22104AB  24034.35713778  .00000211  00000-0  31357-4 0  9998,2 53613  53.2179  69.9868 0001736  77.1859 282.9327 15.08842981 80093,6917.871,95.437,540.937,538.535,0.0
53613.0,STARLINK-4655,PAYLOAD,2024-02-03 19:41:58,15.08841185,0.0001768,53.2179,67.9055,76.2904,283.8285,9.6324e-06,-1.35e-06,0.0,0 STARLINK-4655,1 53613U 22104AB  24034.82081902 -.00000135  00000-0  96324-5 0  9999,2 53613  53.2179  67.9055 0001768  76.2904 283.8285 15.08841185 80161,6917.877,95.437,540.965,538.519,0.0
53613.0,STARLINK-4655,PAYLOAD,2024-02-04 08:25:03,15.08841825,0.0001744,53.2174,65.5268,76.2339,283.8847,4.9417e-06,-2.09e-06,0.0,0 STARLINK-4655,1 53613U 22104AB  24035.35073843 -.00000209  00000-0  49417-5 0  9996,2 53613  53.2174  65.5268 0001744  76.2339 283.8847 15.08841825 79671,6917.875,95.437,540.946,538.533,0.0
53613.0,STARLINK-4655,PAYLOAD,2024-02-05 11:26:37,15.08840988,0.000151,53.2166,60.4682,89.2631,270.8534,1.0994e-05,-1.13e-06,0.0,0 STARLINK-4655,1 53613U 22104AB  24036.47681719 -.00000113  00000-0  10994-4 0  9998,2 53613  53.2166  60.4682 0001510  89.2631 270.8534 15.08840988 79843,6917.877,95.437,540.787,538.698,0.0
53613.0,STARLINK-4655,PAYLOAD,2024-02-06 01:45:06,15.0882817,0.000173,53.2185,57.7862,122.0945,238.0215,-9.0728e-05,-1.731e-05,0.0,0 STARLINK-4655,1 53613U 22104AB  24037.07299004 -.00001731  00000-0 -90728-4 0  9998,2 53613  53.2185  57.7862 0001730 122.0945 238.0215 15.08828170 79932,6917.917,95.438,540.978,538.585,0.0
53613.0,STARLINK-4655,PAYLOAD,2024-02-06 08:06:39,15.0882801,0.0001655,53.218,56.6031,102.7043,257.4134,-3.582e-05,-8.58e-06,0.0,0 STARLINK-4655,1 53613U 22104AB  24037.33795170 -.00000858  00000-0 -35820-4 0  9993,2 53613  53.2180  56.6031 0001655 102.7043 257.4134 15.08828010 80540,6917.917,95.438,540.927,538.637,0.0
53613.0,STARLINK-4655,PAYLOAD,2024-02-07 01:35:52,15.08842457,0.0001594,53.2176,53.3291,115.3026,244.8131,6.3784e-05,7.27e-06,0.0,0 STARLINK-4655,1 53613U 22104AB  24038.06658059  .00000727  00000-0  63784-4 0  9991,2 53613  53.2176  53.3291 0001594 115.3026 244.8131 15.08842457 80087,6917.873,95.437,540.841,538.635,0.0
53613.0,STARLINK-4655,PAYLOAD,2024-02-07 07:57:24,15.08851683,0.0001552,53.2181,52.1423,99.2804,260.8364,0.00015676,2.208e-05,0.0,0 STARLINK-4655,1 53613U 22104AB  24038.33153246  .00002208  00000-0  15676-3 0  9991,2 53613  53.2181  52.1423 0001552  99.2804 260.8364 15.08851683 80127,6917.845,95.437,540.783,538.636,0.0
53613.0,STARLINK-4655,PAYLOAD,2024-02-07 17:29:43,15.08853868,0.0001644,53.218,50.3526,107.6834,252.4337,-5.8942e-05,-1.226e-05,0.0,0 STARLINK-4655,1 53613U 22104AB  24038.72897522 -.00001226  00000-0 -58942-4 0  9991,2 53613  53.2180  50.3526 0001644 107.6834 252.4337 15.08853868 80189,6917.838,95.437,540.84,538.566,0.0
53613.0,STARLINK-4655,PAYLOAD,2024-02-08 01:26:40,15.08833576,0.0001806,53.2196,48.8762,107.9785,252.1404,7.4869e-05,9.03e-06,0.0,0 STARLINK-4655,1 53613U 22104AB  24039.06018818  .00000903  00000-0  74869-4 0  9997,2 53613  53.2196  48.8762 0001806 107.9785 252.1404 15.08833576 80230,6917.9,95.438,541.014,538.516,0.0
